CCSDS_OMM_VERS = 2.0
CREATION_DATE  = 
ORIGINATOR     = 

OBJECT_NAME    = STARLINK-36522
OBJECT_ID      = 2026-008S
CENTER_NAME    = EARTH
REF_FRAME      = TEME
TIME_SYSTEM    = UTC
MEAN_ELEMENT_THEORY = SGP/SGP4

EPOCH          = 2026-01-24T06:00:02.000160
MEAN_MOTION    = 15.94891850
ECCENTRICITY   = .00013234
INCLINATION    = 43.0017
RA_OF_ASC_NODE = 103.7197
ARG_OF_PERICENTER = 271.3079
MEAN_ANOMALY   = 319.0514

EPHEMERIS_TYPE = 0
CLASSIFICATION_TYPE = U
NORAD_CAT_ID   = 67461
ELEMENT_SET_NO = 999
REV_AT_EPOCH   = 265
BSTAR          = -.2922164E-2
MEAN_MOTION_DOT = -.1170981E-1
MEAN_MOTION_DDOT = .41485154E-3

CCSDS_OMM_VERS = 2.0
CREATION_DATE  = 
ORIGINATOR     = 

OBJECT_NAME    = STARLINK-36504
OBJECT_ID      = 2026-008T
CENTER_NAME    = EARTH
REF_FRAME      = TEME
TIME_SYSTEM    = UTC
MEAN_ELEMENT_THEORY = SGP/SGP4

EPOCH          = 2026-01-24T06:00:02.000160
MEAN_MOTION    = 15.94985394
ECCENTRICITY   = .00014368
INCLINATION    = 43.0017
RA_OF_ASC_NODE = 103.7126
ARG_OF_PERICENTER = 269.3724
MEAN_ANOMALY   = 323.8065

EPHEMERIS_TYPE = 0
CLASSIFICATION_TYPE = U
NORAD_CAT_ID   = 67462
ELEMENT_SET_NO = 999
REV_AT_EPOCH   = 267
BSTAR          = -.29607849E-2
MEAN_MOTION_DOT = -.1192249E-1
MEAN_MOTION_DDOT = .42912936E-3

CCSDS_OMM_VERS = 2.0
CREATION_DATE  = 
ORIGINATOR     = 

OBJECT_NAME    = STARLINK-36505
OBJECT_ID      = 2026-008U
CENTER_NAME    = EARTH
REF_FRAME      = TEME
TIME_SYSTEM    = UTC
MEAN_ELEMENT_THEORY = SGP/SGP4

EPOCH          = 2026-01-24T06:00:02.000160
MEAN_MOTION    = 15.95076280
ECCENTRICITY   = .00013657
INCLINATION    = 43.0021
RA_OF_ASC_NODE = 103.7054
ARG_OF_PERICENTER = 270.6391
MEAN_ANOMALY   = 325.4934

EPHEMERIS_TYPE = 0
CLASSIFICATION_TYPE = U
NORAD_CAT_ID   = 67463
ELEMENT_SET_NO = 999
REV_AT_EPOCH   = 265
BSTAR          = -.29961719E-2
MEAN_MOTION_DOT = -.1212203E-1
MEAN_MOTION_DDOT = .44275405E-3

CCSDS_OMM_VERS = 2.0
CREATION_DATE  = 
ORIGINATOR     = 

OBJECT_NAME    = STARLINK-36421
OBJECT_ID      = 2026-008V
CENTER_NAME    = EARTH
REF_FRAME      = TEME
TIME_SYSTEM    = UTC
MEAN_ELEMENT_THEORY = SGP/SGP4

EPOCH          = 2026-01-24T06:00:02.000160
MEAN_MOTION    = 15.95160110
ECCENTRICITY   = .00013177
INCLINATION    = 43.0020
RA_OF_ASC_NODE = 103.6977
ARG_OF_PERICENTER = 269.9320
MEAN_ANOMALY   = 329.2644

EPHEMERIS_TYPE = 0
CLASSIFICATION_TYPE = U
NORAD_CAT_ID   = 67464
ELEMENT_SET_NO = 999
REV_AT_EPOCH   = 265
BSTAR          = -.30219701E-2
MEAN_MOTION_DOT = -.1228009E-1
MEAN_MOTION_DDOT = .45374971E-3

CCSDS_OMM_VERS = 2.0
CREATION_DATE  = 
ORIGINATOR     = 

OBJECT_NAME    = STARLINK-36437
OBJECT_ID      = 2026-008W
CENTER_NAME    = EARTH
REF_FRAME      = TEME
TIME_SYSTEM    = UTC
MEAN_ELEMENT_THEORY = SGP/SGP4

EPOCH          = 2026-01-24T06:00:02.000160
MEAN_MOTION    = 15.95236110
ECCENTRICITY   = .00012858
INCLINATION    = 43.0018
RA_OF_ASC_NODE = 103.6909
ARG_OF_PERICENTER = 269.3468
MEAN_ANOMALY   = 332.3538

EPHEMERIS_TYPE = 0
CLASSIFICATION_TYPE = U
NORAD_CAT_ID   = 67465
ELEMENT_SET_NO = 999
REV_AT_EPOCH   = 265
BSTAR          = -.30593873E-2
MEAN_MOTION_DOT = -.1248107E-1
MEAN_MOTION_DDOT = .46778016E-3

CCSDS_OMM_VERS = 2.0
CREATION_DATE  = 
ORIGINATOR     = 

OBJECT_NAME    = STARLINK-36520
OBJECT_ID      = 2026-008X
CENTER_NAME    = EARTH
REF_FRAME      = TEME
TIME_SYSTEM    = UTC
MEAN_ELEMENT_THEORY = SGP/SGP4

EPOCH          = 2026-01-24T06:00:02.000160
MEAN_MOTION    = 15.95319821
ECCENTRICITY   = .00014236
INCLINATION    = 43.0017
RA_OF_ASC_NODE = 103.6838
ARG_OF_PERICENTER = 265.4881
MEAN_ANOMALY   = 339.0383

EPHEMERIS_TYPE = 0
CLASSIFICATION_TYPE = U
NORAD_CAT_ID   = 67466
ELEMENT_SET_NO = 999
REV_AT_EPOCH   = 265
BSTAR          = -.31013607E-2
MEAN_MOTION_DOT = -.1270747E-1
MEAN_MOTION_DDOT = .48382714E-3

CCSDS_OMM_VERS = 2.0
CREATION_DATE  = 
ORIGINATOR     = 

OBJECT_NAME    = STARLINK-36425
OBJECT_ID      = 2026-008Y
CENTER_NAME    = EARTH
REF_FRAME      = TEME
TIME_SYSTEM    = UTC
MEAN_ELEMENT_THEORY = SGP/SGP4

EPOCH          = 2026-01-24T06:00:02.000160
MEAN_MOTION    = 15.95399623
ECCENTRICITY   = .00014217
INCLINATION    = 43.0017
RA_OF_ASC_NODE = 103.6773
ARG_OF_PERICENTER = 265.5784
MEAN_ANOMALY   = 341.4804

EPHEMERIS_TYPE = 0
CLASSIFICATION_TYPE = U
NORAD_CAT_ID   = 67467
ELEMENT_SET_NO = 999
REV_AT_EPOCH   = 265
BSTAR          = -.3147201E-2
MEAN_MOTION_DOT = -.1294842E-1
MEAN_MOTION_DDOT = .50114905E-3

CCSDS_OMM_VERS = 2.0
CREATION_DATE  = 
ORIGINATOR     = 

OBJECT_NAME    = STARLINK-36414
OBJECT_ID      = 2026-008Z
CENTER_NAME    = EARTH
REF_FRAME      = TEME
TIME_SYSTEM    = UTC
MEAN_ELEMENT_THEORY = SGP/SGP4

EPOCH          = 2026-01-24T06:00:02.000160
MEAN_MOTION    = 15.96706166
ECCENTRICITY   = .00016501
INCLINATION    = 43.0016
RA_OF_ASC_NODE = 103.5903
ARG_OF_PERICENTER = 266.3963
MEAN_ANOMALY   = 14.9073

EPHEMERIS_TYPE = 0
CLASSIFICATION_TYPE = U
NORAD_CAT_ID   = 67468
ELEMENT_SET_NO = 999
REV_AT_EPOCH   = 265
BSTAR          = -.25590133E-2
MEAN_MOTION_DOT = -.1132438E-1
MEAN_MOTION_DDOT = .39749733E-3

CCSDS_OMM_VERS = 2.0
CREATION_DATE  = 
ORIGINATOR     = 

OBJECT_NAME    = STARLINK-36441
OBJECT_ID      = 2026-008AA
CENTER_NAME    = EARTH
REF_FRAME      = TEME
TIME_SYSTEM    = UTC
MEAN_ELEMENT_THEORY = SGP/SGP4

EPOCH          = 2026-01-24T06:00:02.000160
MEAN_MOTION    = 15.97180021
ECCENTRICITY   = .00013359
INCLINATION    = 43.0014
RA_OF_ASC_NODE = 103.5482
ARG_OF_PERICENTER = 273.4815
MEAN_ANOMALY   = 24.2222

EPHEMERIS_TYPE = 0
CLASSIFICATION_TYPE = U
NORAD_CAT_ID   = 67469
ELEMENT_SET_NO = 999
REV_AT_EPOCH   = 265
BSTAR          = -.26502703E-2
MEAN_MOTION_DOT = -.1203088E-1
MEAN_MOTION_DDOT = .44614331E-3

CCSDS_OMM_VERS = 2.0
CREATION_DATE  = 
ORIGINATOR     = 

OBJECT_NAME    = STARLINK-36454
OBJECT_ID      = 2026-008AB
CENTER_NAME    = EARTH
REF_FRAME      = TEME
TIME_SYSTEM    = UTC
MEAN_ELEMENT_THEORY = SGP/SGP4

EPOCH          = 2026-01-24T06:00:02.000160
MEAN_MOTION    = 15.97383283
ECCENTRICITY   = .00014948
INCLINATION    = 43.0013
RA_OF_ASC_NODE = 103.5306
ARG_OF_PERICENTER = 270.6552
MEAN_ANOMALY   = 33.9437

EPHEMERIS_TYPE = 0
CLASSIFICATION_TYPE = U
NORAD_CAT_ID   = 67470
ELEMENT_SET_NO = 999
REV_AT_EPOCH   = 265
BSTAR          = -.26950486E-2
MEAN_MOTION_DOT = -.1236936E-1
MEAN_MOTION_DDOT = .47034618E-3

CCSDS_OMM_VERS = 2.0
CREATION_DATE  = 
ORIGINATOR     = 

OBJECT_NAME    = STARLINK-36334
OBJECT_ID      = 2026-008AC
CENTER_NAME    = EARTH
REF_FRAME      = TEME
TIME_SYSTEM    = UTC
MEAN_ELEMENT_THEORY = SGP/SGP4

EPOCH          = 2026-01-24T06:00:02.000160
MEAN_MOTION    = 15.96927407
ECCENTRICITY   = .00015052
INCLINATION    = 43.0015
RA_OF_ASC_NODE = 103.5702
ARG_OF_PERICENTER = 268.6999
MEAN_ANOMALY   = 20.3366

EPHEMERIS_TYPE = 0
CLASSIFICATION_TYPE = U
NORAD_CAT_ID   = 67471
ELEMENT_SET_NO = 999
REV_AT_EPOCH   = 265
BSTAR          = -.26068669E-2
MEAN_MOTION_DOT = -.1167376E-1
MEAN_MOTION_DDOT = .42114173E-3

CCSDS_OMM_VERS = 2.0
CREATION_DATE  = 
ORIGINATOR     = 

OBJECT_NAME    = STARLINK-36269
OBJECT_ID      = 2026-008AD
CENTER_NAME    = EARTH
REF_FRAME      = TEME
TIME_SYSTEM    = UTC
MEAN_ELEMENT_THEORY = SGP/SGP4

EPOCH          = 2026-01-24T06:00:02.000160
MEAN_MOTION    = 15.97676986
ECCENTRICITY   = .00013844
INCLINATION    = 43.0012
RA_OF_ASC_NODE = 103.5063
ARG_OF_PERICENTER = 274.3935
MEAN_ANOMALY   = 39.6207

EPHEMERIS_TYPE = 0
CLASSIFICATION_TYPE = U
NORAD_CAT_ID   = 67472
ELEMENT_SET_NO = 999
REV_AT_EPOCH   = 267
BSTAR          = -.27844795E-2
MEAN_MOTION_DOT = -.1298293E-1
MEAN_MOTION_DDOT = .51547325E-3

CCSDS_OMM_VERS = 2.0
CREATION_DATE  = 
ORIGINATOR     = 

OBJECT_NAME    = STARLINK-36408
OBJECT_ID      = 2026-008AE
CENTER_NAME    = EARTH
REF_FRAME      = TEME
TIME_SYSTEM    = UTC
MEAN_ELEMENT_THEORY = SGP/SGP4

EPOCH          = 2026-01-24T06:00:02.000160
MEAN_MOTION    = 15.98080938
ECCENTRICITY   = .00014878
INCLINATION    = 43.0015
RA_OF_ASC_NODE = 103.4704
ARG_OF_PERICENTER = 274.3731
MEAN_ANOMALY   = 53.9214

EPHEMERIS_TYPE = 0
CLASSIFICATION_TYPE = U
NORAD_CAT_ID   = 67473
ELEMENT_SET_NO = 999
REV_AT_EPOCH   = 267
BSTAR          = -.29972143E-2
MEAN_MOTION_DOT = -.1427764E-1
MEAN_MOTION_DDOT = .61616592E-3

CCSDS_OMM_VERS = 2.0
CREATION_DATE  = 
ORIGINATOR     = 

OBJECT_NAME    = ALSAT-3A
OBJECT_ID      = 2026-009A
CENTER_NAME    = EARTH
REF_FRAME      = TEME
TIME_SYSTEM    = UTC
MEAN_ELEMENT_THEORY = SGP/SGP4

EPOCH          = 2026-01-24T03:28:36.058656
MEAN_MOTION    = 15.23154458
ECCENTRICITY   = .00113132
INCLINATION    = 97.4710
RA_OF_ASC_NODE = 98.8802
ARG_OF_PERICENTER = 226.2901
MEAN_ANOMALY   = 133.7399

EPHEMERIS_TYPE = 0
CLASSIFICATION_TYPE = U
NORAD_CAT_ID   = 67474
ELEMENT_SET_NO = 999
REV_AT_EPOCH   = 137
BSTAR          = .24798991E-4
MEAN_MOTION_DOT = .515E-5
MEAN_MOTION_DDOT = 0

CCSDS_OMM_VERS = 2.0
CREATION_DATE  = 
ORIGINATOR     = 

OBJECT_NAME    = CZ-2C R/B
OBJECT_ID      = 2026-009B
CENTER_NAME    = EARTH
REF_FRAME      = TEME
TIME_SYSTEM    = UTC
MEAN_ELEMENT_THEORY = SGP/SGP4

EPOCH          = 2026-01-24T07:59:49.168608
MEAN_MOTION    = 15.02976062
ECCENTRICITY   = .00991514
INCLINATION    = 97.1801
RA_OF_ASC_NODE = 98.1295
ARG_OF_PERICENTER = 190.9423
MEAN_ANOMALY   = 168.9648

EPHEMERIS_TYPE = 0
CLASSIFICATION_TYPE = U
NORAD_CAT_ID   = 67475
ELEMENT_SET_NO = 999
REV_AT_EPOCH   = 138
BSTAR          = .43128756E-3
MEAN_MOTION_DOT = .6398E-4
MEAN_MOTION_DDOT = 0

